[{"OBJECT_NAME":"STARLINK-36931","OBJECT_ID":"2026-039Q","EPOCH":"2026-03-17T20:00:01.999008","MEAN_MOTION":15.68458588,"ECCENTRICITY":0.0001496,"INCLINATION":42.9999,"RA_OF_ASC_NODE":5.0761,"ARG_OF_PERICENTER":261.024,"MEAN_ANOMALY":121.8043,"EPHEMERIS_TYPE":0,"CLASSIFICATION_TYPE":"U","NORAD_CAT_ID":68000,"ELEMENT_SET_NO":999,"REV_AT_EPOCH":418,"BSTAR":-0.018855,"MEAN_MOTION_DOT":-0.01938621,"MEAN_MOTION_DDOT":0},{"OBJECT_NAME":"STARLINK-36903","OBJECT_ID":"2026-039R","EPOCH":"2026-03-17T20:00:01.999008","MEAN_MOTION":15.64279128,"ECCENTRICITY":0.0001545,"INCLINATION":42.9998,"RA_OF_ASC_NODE":5.2045,"ARG_OF_PERICENTER":252.2491,"MEAN_ANOMALY":78.6578,"EPHEMERIS_TYPE":0,"CLASSIFICATION_TYPE":"U","NORAD_CAT_ID":68001,"ELEMENT_SET_NO":999,"REV_AT_EPOCH":418,"BSTAR":-0.022012,"MEAN_MOTION_DOT":-0.0191177,"MEAN_MOTION_DDOT":0},{"OBJECT_NAME":"STARLINK-36898","OBJECT_ID":"2026-039S","EPOCH":"2026-03-17T20:00:01.999008","MEAN_MOTION":15.67345343,"ECCENTRICITY":0.0001509,"INCLINATION":42.9999,"RA_OF_ASC_NODE":5.0771,"ARG_OF_PERICENTER":262.4745,"MEAN_ANOMALY":119.578,"EPHEMERIS_TYPE":0,"CLASSIFICATION_TYPE":"U","NORAD_CAT_ID":68002,"ELEMENT_SET_NO":999,"REV_AT_EPOCH":418,"BSTAR":-0.019804,"MEAN_MOTION_DOT":-0.01943883,"MEAN_MOTION_DDOT":0},{"OBJECT_NAME":"STARLINK-36862","OBJECT_ID":"2026-039T","EPOCH":"2026-03-17T20:00:01.999008","MEAN_MOTION":15.65199394,"ECCENTRICITY":0.0001679,"INCLINATION":42.9997,"RA_OF_ASC_NODE":5.127,"ARG_OF_PERICENTER":257.6234,"MEAN_ANOMALY":104.1096,"EPHEMERIS_TYPE":0,"CLASSIFICATION_TYPE":"U","NORAD_CAT_ID":68003,"ELEMENT_SET_NO":999,"REV_AT_EPOCH":418,"BSTAR":-0.021133,"MEAN_MOTION_DOT":-0.0190556,"MEAN_MOTION_DDOT":0},{"OBJECT_NAME":"STARLINK-36888","OBJECT_ID":"2026-039U","EPOCH":"2026-03-17T20:00:01.999008","MEAN_MOTION":15.64873035,"ECCENTRICITY":0.0001717,"INCLINATION":42.9997,"RA_OF_ASC_NODE":5.1714,"ARG_OF_PERICENTER":255.159,"MEAN_ANOMALY":88.9527,"EPHEMERIS_TYPE":0,"CLASSIFICATION_TYPE":"U","NORAD_CAT_ID":68004,"ELEMENT_SET_NO":999,"REV_AT_EPOCH":418,"BSTAR":-0.021464,"MEAN_MOTION_DOT":-0.0190963,"MEAN_MOTION_DDOT":0},{"OBJECT_NAME":"STARLINK-36910","OBJECT_ID":"2026-039V","EPOCH":"2026-03-17T20:00:01.999008","MEAN_MOTION":15.68523802,"ECCENTRICITY":0.000149,"INCLINATION":42.9997,"RA_OF_ASC_NODE":5.0307,"ARG_OF_PERICENTER":262.9613,"MEAN_ANOMALY":137.6597,"EPHEMERIS_TYPE":0,"CLASSIFICATION_TYPE":"U","NORAD_CAT_ID":68005,"ELEMENT_SET_NO":999,"REV_AT_EPOCH":418,"BSTAR":-0.018869,"MEAN_MOTION_DOT":-0.01944538,"MEAN_MOTION_DDOT":0},{"OBJECT_NAME":"STARLINK-36889","OBJECT_ID":"2026-039W","EPOCH":"2026-03-17T20:00:01.999008","MEAN_MOTION":15.63246913,"ECCENTRICITY":0.0001583,"INCLINATION":42.9999,"RA_OF_ASC_NODE":5.1908,"ARG_OF_PERICENTER":251.5734,"MEAN_ANOMALY":84.446,"EPHEMERIS_TYPE":0,"CLASSIFICATION_TYPE":"U","NORAD_CAT_ID":68006,"ELEMENT_SET_NO":999,"REV_AT_EPOCH":418,"BSTAR":-0.022932,"MEAN_MOTION_DOT":-0.01911332,"MEAN_MOTION_DDOT":0},{"OBJECT_NAME":"STARLINK-36592","OBJECT_ID":"2026-039X","EPOCH":"2026-03-17T20:00:01.999008","MEAN_MOTION":15.67642835,"ECCENTRICITY":0.0001485,"INCLINATION":42.9999,"RA_OF_ASC_NODE":5.0248,"ARG_OF_PERICENTER":265.0389,"MEAN_ANOMALY":137.7731,"EPHEMERIS_TYPE":0,"CLASSIFICATION_TYPE":"U","NORAD_CAT_ID":68007,"ELEMENT_SET_NO":999,"REV_AT_EPOCH":418,"BSTAR":-0.019627,"MEAN_MOTION_DOT":-0.01949542,"MEAN_MOTION_DDOT":0},{"OBJECT_NAME":"STARLINK-36911","OBJECT_ID":"2026-039Y","EPOCH":"2026-03-17T20:00:01.999008","MEAN_MOTION":15.66134686,"ECCENTRICITY":0.0001542,"INCLINATION":42.9993,"RA_OF_ASC_NODE":5.0625,"ARG_OF_PERICENTER":262.4451,"MEAN_ANOMALY":125.0629,"EPHEMERIS_TYPE":0,"CLASSIFICATION_TYPE":"U","NORAD_CAT_ID":68008,"ELEMENT_SET_NO":999,"REV_AT_EPOCH":418,"BSTAR":-0.020749,"MEAN_MOTION_DOT":-0.01938777,"MEAN_MOTION_DDOT":0},{"OBJECT_NAME":"STARLINK-36956","OBJECT_ID":"2026-039Z","EPOCH":"2026-03-17T20:00:01.999008","MEAN_MOTION":15.64964891,"ECCENTRICITY":0.0001724,"INCLINATION":42.9997,"RA_OF_ASC_NODE":5.0923,"ARG_OF_PERICENTER":257.6329,"MEAN_ANOMALY":117.8236,"EPHEMERIS_TYPE":0,"CLASSIFICATION_TYPE":"U","NORAD_CAT_ID":68009,"ELEMENT_SET_NO":999,"REV_AT_EPOCH":418,"BSTAR":-0.021261,"MEAN_MOTION_DOT":-0.01899806,"MEAN_MOTION_DDOT":0},{"OBJECT_NAME":"STARLINK-36953","OBJECT_ID":"2026-039AA","EPOCH":"2026-03-17T20:00:01.999008","MEAN_MOTION":15.7242033,"ECCENTRICITY":0.0001201,"INCLINATION":43,"RA_OF_ASC_NODE":4.8582,"ARG_OF_PERICENTER":265.3049,"MEAN_ANOMALY":203.9688,"EPHEMERIS_TYPE":0,"CLASSIFICATION_TYPE":"U","NORAD_CAT_ID":68010,"ELEMENT_SET_NO":999,"REV_AT_EPOCH":418,"BSTAR":-0.016062,"MEAN_MOTION_DOT":-0.0195107,"MEAN_MOTION_DDOT":0},{"OBJECT_NAME":"STARLINK-36991","OBJECT_ID":"2026-039AB","EPOCH":"2026-03-17T20:00:01.999008","MEAN_MOTION":15.54352362,"ECCENTRICITY":0.0001151,"INCLINATION":43.0003,"RA_OF_ASC_NODE":5.5668,"ARG_OF_PERICENTER":259.0247,"MEAN_ANOMALY":285.0989,"EPHEMERIS_TYPE":0,"CLASSIFICATION_TYPE":"U","NORAD_CAT_ID":68011,"ELEMENT_SET_NO":999,"REV_AT_EPOCH":418,"BSTAR":-0.031716,"MEAN_MOTION_DOT":-0.01882837,"MEAN_MOTION_DDOT":0},{"OBJECT_NAME":"STARLINK-36936","OBJECT_ID":"2026-039AC","EPOCH":"2026-03-17T20:00:01.999008","MEAN_MOTION":15.64739469,"ECCENTRICITY":0.0001688,"INCLINATION":42.9995,"RA_OF_ASC_NODE":5.0458,"ARG_OF_PERICENTER":258.5208,"MEAN_ANOMALY":135.0617,"EPHEMERIS_TYPE":0,"CLASSIFICATION_TYPE":"U","NORAD_CAT_ID":68012,"ELEMENT_SET_NO":999,"REV_AT_EPOCH":418,"BSTAR":-0.02129,"MEAN_MOTION_DOT":-0.01886869,"MEAN_MOTION_DDOT":0},{"OBJECT_NAME":"STARLINK-36967","OBJECT_ID":"2026-039AD","EPOCH":"2026-03-17T20:00:01.999008","MEAN_MOTION":15.55771247,"ECCENTRICITY":0.0001315,"INCLINATION":42.9997,"RA_OF_ASC_NODE":5.5064,"ARG_OF_PERICENTER":250.6895,"MEAN_ANOMALY":317.8311,"EPHEMERIS_TYPE":0,"CLASSIFICATION_TYPE":"U","NORAD_CAT_ID":68013,"ELEMENT_SET_NO":999,"REV_AT_EPOCH":418,"BSTAR":-0.030022,"MEAN_MOTION_DOT":-0.01879501,"MEAN_MOTION_DDOT":0},{"OBJECT_NAME":"STARLINK-36985","OBJECT_ID":"2026-039AE","EPOCH":"2026-03-17T20:00:01.999008","MEAN_MOTION":15.729109,"ECCENTRICITY":0.0001247,"INCLINATION":42.9997,"RA_OF_ASC_NODE":4.8271,"ARG_OF_PERICENTER":263.4346,"MEAN_ANOMALY":218.3339,"EPHEMERIS_TYPE":0,"CLASSIFICATION_TYPE":"U","NORAD_CAT_ID":68014,"ELEMENT_SET_NO":999,"REV_AT_EPOCH":418,"BSTAR":-0.01576,"MEAN_MOTION_DOT":-0.01954934,"MEAN_MOTION_DDOT":0},{"OBJECT_NAME":"STARLINK-36335","OBJECT_ID":"2026-040A","EPOCH":"2026-03-17T20:00:01.999008","MEAN_MOTION":15.84487115,"ECCENTRICITY":0.0001492,"INCLINATION":97.2706,"RA_OF_ASC_NODE":25.6529,"ARG_OF_PERICENTER":69.4958,"MEAN_ANOMALY":355.4155,"EPHEMERIS_TYPE":0,"CLASSIFICATION_TYPE":"U","NORAD_CAT_ID":68015,"ELEMENT_SET_NO":999,"REV_AT_EPOCH":368,"BSTAR":-0.0072374,"MEAN_MOTION_DOT":-0.01431768,"MEAN_MOTION_DDOT":0},{"OBJECT_NAME":"STARLINK-36923","OBJECT_ID":"2026-040B","EPOCH":"2026-03-17T14:00:01.999872","MEAN_MOTION":15.85260943,"ECCENTRICITY":0.00014861,"INCLINATION":97.2707,"RA_OF_ASC_NODE":25.3918,"ARG_OF_PERICENTER":76.747,"MEAN_ANOMALY":11.6179,"EPHEMERIS_TYPE":0,"CLASSIFICATION_TYPE":"U","NORAD_CAT_ID":68016,"ELEMENT_SET_NO":999,"REV_AT_EPOCH":369,"BSTAR":-0.0072514475,"MEAN_MOTION_DOT":-0.01512078,"MEAN_MOTION_DDOT":0}]
