STARLINK-36931          
1 68000U 26039Q   26076.83335647 -.01938621  00000+0 -18855-1 0  9993
2 68000  42.9999   5.0761 0001496 261.0240 121.8043 15.68458588  4182
STARLINK-36903          
1 68001U 26039R   26076.83335647 -.01911770  00000+0 -22012-1 0  9990
2 68001  42.9998   5.2045 0001545 252.2491  78.6578 15.64279128  4183
STARLINK-36898          
1 68002U 26039S   26076.83335647 -.01943883  00000+0 -19804-1 0  9996
2 68002  42.9999   5.0771 0001509 262.4745 119.5780 15.67345343  4180
STARLINK-36862          
1 68003U 26039T   26076.83335647 -.01905560  00000+0 -21133-1 0  9995
2 68003  42.9997   5.1270 0001679 257.6234 104.1096 15.65199394  4182
STARLINK-36888          
1 68004U 26039U   26076.83335647 -.01909630  00000+0 -21464-1 0  9995
2 68004  42.9997   5.1714 0001717 255.1590  88.9527 15.64873035  4185
STARLINK-36910          
1 68005U 26039V   26076.83335647 -.01944538  00000+0 -18869-1 0  9997
2 68005  42.9997   5.0307 0001490 262.9613 137.6597 15.68523802  4180
STARLINK-36889          
1 68006U 26039W   26076.83335647 -.01911332  00000+0 -22932-1 0  9990
2 68006  42.9999   5.1908 0001583 251.5734  84.4460 15.63246913  4180
STARLINK-36592          
1 68007U 26039X   26076.83335647 -.01949542  00000+0 -19627-1 0  9992
2 68007  42.9999   5.0248 0001485 265.0389 137.7731 15.67642835  4184
STARLINK-36911          
1 68008U 26039Y   26076.83335647 -.01938777  00000+0 -20749-1 0  9998
2 68008  42.9993   5.0625 0001542 262.4451 125.0629 15.66134686  4188
STARLINK-36956          
1 68009U 26039Z   26076.83335647 -.01899806  00000+0 -21261-1 0  9998
2 68009  42.9997   5.0923 0001724 257.6329 117.8236 15.64964891  4186
STARLINK-36953          
1 68010U 26039AA  26076.83335647 -.01951070  00000+0 -16062-1 0  9995
2 68010  43.0000   4.8582 0001201 265.3049 203.9688 15.72420330  4180
STARLINK-36991          
1 68011U 26039AB  26076.83335647 -.01882837  00000+0 -31716-1 0  9993
2 68011  43.0003   5.5668 0001151 259.0247 285.0989 15.54352362  4185
STARLINK-36936          
1 68012U 26039AC  26076.83335647 -.01886869  00000+0 -21290-1 0  9999
2 68012  42.9995   5.0458 0001688 258.5208 135.0617 15.64739469  4182
STARLINK-36967          
1 68013U 26039AD  26076.83335647 -.01879501  00000+0 -30022-1 0  9998
2 68013  42.9997   5.5064 0001315 250.6895 317.8311 15.55771247  4186
STARLINK-36985          
1 68014U 26039AE  26076.83335647 -.01954934  00000+0 -15760-1 0  9995
2 68014  42.9997   4.8271 0001247 263.4346 218.3339 15.72910900  4181
STARLINK-36335          
1 68015U 26040A   26076.83335647 -.01431768  00000+0 -72374-2 0  9998
2 68015  97.2706  25.6529 0001492  69.4958 355.4155 15.84487115  3688
STARLINK-36923          
1 68016U 26040B   26076.58335648 -.01512078  00000+0 -72514-2 0  9992
2 68016  97.2707  25.3918 0001486  76.7470  11.6179 15.85260943  3699
